GLOBALSTAR M023         
1 25621U 99004A   24346.51140265  .00000044  00000+0  82092-3 0  9992
2 25621  52.0109 264.9164 0010714  72.1058  98.5690 12.62488009192024
GLOBALSTAR M040         
1 25622U 99004B   24346.57171426 -.00000051  00000+0  29352-3 0  9991
2 25622  51.9920 268.6062 0001280  19.1827 151.9301 12.61993279191565
GLOBALSTAR M036         
1 25623U 99004C   24346.55307441 -.00000023  00000+0  86778-3 0  9992
2 25623  51.9990  14.8792 0010989  54.7438 104.8966 11.86583207156683
GLOBALSTAR M038         
1 25624U 99004D   24346.66993771 -.00000059  00000+0  29625-3 0  9999
2 25624  51.9968 251.5968 0002659  35.7651 329.9358 12.32515709179218
GLOBALSTAR M022         
1 25649U 99012A   24346.65284277 -.00000089  00000+0 -29205-4 0  9997
2 25649  52.0047  80.7019 0003053 150.0997 356.3621 12.02493077153890
GLOBALSTAR M041         
1 25650U 99012B   24346.28179619 -.00000037  00000+0  62356-3 0  9996
2 25650  52.0037 317.4358 0002192 318.5773  41.4897 11.96662847155785
GLOBALSTAR M046         
1 25651U 99012C   24346.50688035 -.00000102  00000+0 -14602-3 0  9994
2 25651  52.0078  38.0851 0002160 225.5196 281.0639 12.09404205160954
GLOBALSTAR M037         
1 25652U 99012D   24346.55913021 -.00000051  00000+0  29189-3 0  9994
2 25652  52.0024  35.4556 0002384 131.8431  32.9283 12.62428621187570
